{"type": "FeatureCollection", "features": [ {"type": "Feature", "properties": {"norad_id": 29769, "name": "FENGYUN 1C DEB", "group": "fengyun-1c-debris", "lat": -64.39407461205799, "lon": 77.88821129400642, "alt_km": 916.0916544313986, "timestamp": "2025-12-26T19:22:39.177926+00:00", "meta": {"OBJECT_NAME": "FENGYUN 1C DEB", "OBJECT_ID": "1999-025BK", "EPOCH": "2025-12-26T14:35:45.563136", "MEAN_MOTION": 14.13597736, "ECCENTRICITY": 0.00930239, "INCLINATION": 99.1046, "RA_OF_ASC_NODE": 58.137, "ARG_OF_PERICENTER": 91.7686, "MEAN_ANOMALY": 269.4143, "EPHEMERIS_TYPE": 0, "CLASSIFICATION_TYPE": "U", "NORAD_CAT_ID": 29769, "ELEMENT_SET_NO": 999, "REV_AT_EPOCH": 96877, "BSTAR": 0.0013123888, "MEAN_MOTION_DOT": 2.534e-05, "MEAN_MOTION_DDOT": 0}, "tle": {"line1": "1 29769U 99025BK  25360.60816624  .00002534  00000+0  13124-2 0  9993", "line2": "2 29769  99.1046  58.1370 0093023  91.7686 269.4143 14.13597736968774"}}, "geometry": {"type": "Point", "coordinates": [77.88821129400642, -64.39407461205799]}}, {"type": "Feature", "properties": {"norad_id": 29770, "name": "FENGYUN 1C DEB", "group": "fengyun-1c-debris", "lat": 53.137907330531924, "lon": 64.39039770808515, "alt_km": 865.6808696738644, "timestamp": "2025-12-26T19:22:39.177945+00:00", "meta": {"OBJECT_NAME": "FENGYUN 1C DEB", "OBJECT_ID": "1999-025BL", "EPOCH": "2025-12-26T04:09:51.945696", "MEAN_MOTION": 14.20196486, "ECCENTRICITY": 0.00639968, "INCLINATION": 98.8454, "RA_OF_ASC_NODE": 75.7434, "ARG_OF_PERICENTER": 232.8744, "MEAN_ANOMALY": 182.2688, "EPHEMERIS_TYPE": 0, "CLASSIFICATION_TYPE": "U", "NORAD_CAT_ID": 29770, "ELEMENT_SET_NO": 999, "REV_AT_EPOCH": 97277, "BSTAR": 0.0014851234, "MEAN_MOTION_DOT": 3.192e-05, "MEAN_MOTION_DDOT": 0}, "tle": {"line1": "1 29770U 99025BL  25360.17351789  .00003192  00000+0  14851-2 0  9992", "line2": "2 29770  98.8454  75.7434 0063996 232.8744 182.2688 14.20196486972776"}}, "geometry": {"type": "Point", "coordinates": [64.39039770808515, 53.137907330531924]}}, {"type": "Feature", "properties": {"norad_id": 29772, "name": "FENGYUN 1C DEB", "group": "fengyun-1c-debris", "lat": -15.946426035615186, "lon": 26.499464076388367, "alt_km": 829.2097724507703, "timestamp": "2025-12-26T19:22:39.177963+00:00", "meta": {"OBJECT_NAME": "FENGYUN 1C DEB", "OBJECT_ID": "1999-025BN", "EPOCH": "2025-12-24T13:39:37.897632", "MEAN_MOTION": 14.03249705, "ECCENTRICITY": 0.01369059, "INCLINATION": 98.3837, "RA_OF_ASC_NODE": 206.8509, "ARG_OF_PERICENTER": 257.2434, "MEAN_ANOMALY": 159.5842, "EPHEMERIS_TYPE": 0, "CLASSIFICATION_TYPE": "U", "NORAD_CAT_ID": 29772, "ELEMENT_SET_NO": 999, "REV_AT_EPOCH": 96421, "BSTAR": 0.00095382365, "MEAN_MOTION_DOT": 1.576e-05, "MEAN_MOTION_DDOT": 0}, "tle": {"line1": "1 29772U 99025BN  25358.56918863  .00001576  00000+0  95382-3 0  9999", "line2": "2 29772  98.3837 206.8509 0136905 257.2434 159.5842 14.03249705964219"}}, "geometry": {"type": "Point", "coordinates": [26.499464076388367, -15.946426035615186]}}, {"type": "Feature", "properties": {"norad_id": 29773, "name": "FENGYUN 1C DEB", "group": "fengyun-1c-debris", "lat": 36.369309227823834, "lon": 148.11484006860422, "alt_km": 825.3156378479789, "timestamp": "2025-12-26T19:22:39.177974+00:00", "meta": {"OBJECT_NAME": "FENGYUN 1C DEB", "OBJECT_ID": "1999-025BP", "EPOCH": "2025-12-25T16:22:28.427808", "MEAN_MOTION": 14.27594494, "ECCENTRICITY": 0.0046539, "INCLINATION": 98.9879, "RA_OF_ASC_NODE": 153.6516, "ARG_OF_PERICENTER": 252.724, "MEAN_ANOMALY": 124.8259, "EPHEMERIS_TYPE": 0, "CLASSIFICATION_TYPE": "U", "NORAD_CAT_ID": 29773, "ELEMENT_SET_NO": 999, "REV_AT_EPOCH": 98382, "BSTAR": 0.00041046811, "MEAN_MOTION_DOT": 9.75e-06, "MEAN_MOTION_DDOT": 0}, "tle": {"line1": "1 29773U 99025BP  25359.68227347  .00000975  00000+0  41047-3 0  9995", "line2": "2 29773  98.9879 153.6516 0046539 252.7240 124.8259 14.27594494983826"}}, "geometry": {"type": "Point", "coordinates": [148.11484006860422, 36.369309227823834]}}, {"type": "Feature", "properties": {"norad_id": 29774, "name": "FENGYUN 1C DEB", "group": "fengyun-1c-debris", "lat": 59.9101942686388, "lon": 137.5761712712734, "alt_km": 779.9210299175566, "timestamp": "2025-12-26T19:22:39.177984+00:00", "meta": {"OBJECT_NAME": "FENGYUN 1C DEB", "OBJECT_ID": "1999-025BQ", "EPOCH": "2025-12-26T10:56:52.026144", "MEAN_MOTION": 14.22743669, "ECCENTRICITY": 0.0051355, "INCLINATION": 99.0782, "RA_OF_ASC_NODE": 301.1969, "ARG_OF_PERICENTER": 84.7062, "MEAN_ANOMALY": 35.71, "EPHEMERIS_TYPE": 0, "CLASSIFICATION_TYPE": "U", "NORAD_CAT_ID": 29774, "ELEMENT_SET_NO": 999, "REV_AT_EPOCH": 98270, "BSTAR": 0.00020059798, "MEAN_MOTION_DOT": 4.09e-06, "MEAN_MOTION_DDOT": 0}, "tle": {"line1": "1 29774U 99025BQ  25360.45615771  .00000409  00000+0  20060-3 0  9999", "line2": "2 29774  99.0782 301.1969 0051355  84.7062  35.7100 14.22743669982707"}}, "geometry": {"type": "Point", "coordinates": [137.5761712712734, 59.9101942686388]}}, {"type": "Feature", "properties": {"norad_id": 29776, "name": "FENGYUN 1C DEB", "group": "fengyun-1c-debris", "lat": -31.039066503572528, "lon": 32.48521815937999, "alt_km": 875.44103072508, "timestamp": "2025-12-26T19:22:39.177995+00:00", "meta": {"OBJECT_NAME": "FENGYUN 1C DEB", "OBJECT_ID": "1999-025BS", "EPOCH": "2025-12-26T01:01:20.202816", "MEAN_MOTION": 14.07782196, "ECCENTRICITY": 0.00230736, "INCLINATION": 98.7699, "RA_OF_ASC_NODE": 26.4123, "ARG_OF_PERICENTER": 231.9993, "MEAN_ANOMALY": 182.5173, "EPHEMERIS_TYPE": 0, "CLASSIFICATION_TYPE": "U", "NORAD_CAT_ID": 29776, "ELEMENT_SET_NO": 999, "REV_AT_EPOCH": 97267, "BSTAR": 0.00010482479, "MEAN_MOTION_DOT": 1.35e-06, "MEAN_MOTION_DDOT": 0}, "tle": {"line1": "1 29776U 99025BS  25360.04259494  .00000135  00000+0  10482-3 0  9995", "line2": "2 29776  98.7699  26.4123 0023073 231.9993 182.5173 14.07782196972673"}}, "geometry": {"type": "Point", "coordinates": [32.48521815937999, -31.039066503572528]}}, {"type": "Feature", "properties": {"norad_id": 29777, "name": "FENGYUN 1C DEB", "group": "fengyun-1c-debris", "lat": -55.98994483401568, "lon": 71.71175169670477, "alt_km": 972.7522285409723, "timestamp": "2025-12-26T19:22:39.178005+00:00", "meta": {"OBJECT_NAME": "FENGYUN 1C DEB", "OBJECT_ID": "1999-025BT", "EPOCH": "2025-12-26T11:07:09.988320", "MEAN_MOTION": 13.92110283, "ECCENTRICITY": 0.0093272, "INCLINATION": 99.2817, "RA_OF_ASC_NODE": 57.342, "ARG_OF_PERICENTER": 172.6362, "MEAN_ANOMALY": 205.9896, "EPHEMERIS_TYPE": 0, "CLASSIFICATION_TYPE": "U", "NORAD_CAT_ID": 29777, "ELEMENT_SET_NO": 999, "REV_AT_EPOCH": 96232, "BSTAR": 0.00020633381, "MEAN_MOTION_DOT": 2.29e-06, "MEAN_MOTION_DDOT": 0}, "tle": {"line1": "1 29777U 99025BT  25360.46331005  .00000229  00000+0  20633-3 0  9994", "line2": "2 29777  99.2817  57.3420 0093272 172.6362 205.9896 13.92110283962322"}}, "geometry": {"type": "Point", "coordinates": [71.71175169670477, -55.98994483401568]}}, {"type": "Feature", "properties": {"norad_id": 29779, "name": "FENGYUN 1C DEB", "group": "fengyun-1c-debris", "lat": -77.81347987187694, "lon": 146.62279308851046, "alt_km": 888.59151121165, "timestamp": "2025-12-26T19:22:39.178016+00:00", "meta": {"OBJECT_NAME": "FENGYUN 1C DEB", "OBJECT_ID": "1999-025BV", "EPOCH": "2025-12-26T11:21:14.556960", "MEAN_MOTION": 14.13454661, "ECCENTRICITY": 0.00640413, "INCLINATION": 98.6769, "RA_OF_ASC_NODE": 11.2977, "ARG_OF_PERICENTER": 125.3637, "MEAN_ANOMALY": 235.3543, "EPHEMERIS_TYPE": 0, "CLASSIFICATION_TYPE": "U", "NORAD_CAT_ID": 29779, "ELEMENT_SET_NO": 999, "REV_AT_EPOCH": 97606, "BSTAR": 0.00022578849, "MEAN_MOTION_DOT": 3.91e-06, "MEAN_MOTION_DDOT": 0}, "tle": {"line1": "1 29779U 99025BV  25360.47308515  .00000391  00000+0  22579-3 0  9998", "line2": "2 29779  98.6769  11.2977 0064041 125.3637 235.3543 14.13454661976068"}}, "geometry": {"type": "Point", "coordinates": [146.62279308851046, -77.81347987187694]}}, {"type": "Feature", "properties": {"norad_id": 29780, "name": "FENGYUN 1C DEB", "group": "fengyun-1c-debris", "lat": 52.91617199222906, "lon": -90.05277508525039, "alt_km": 791.265650562068, "timestamp": "2025-12-26T19:22:39.178026+00:00", "meta": {"OBJECT_NAME": "FENGYUN 1C DEB", "OBJECT_ID": "1999-025BW", "EPOCH": "2025-12-26T07:17:51.271296", "MEAN_MOTION": 14.211339, "ECCENTRICITY": 0.00420306, "INCLINATION": 99.278, "RA_OF_ASC_NODE": 281.9088, "ARG_OF_PERICENTER": 89.0919, "MEAN_ANOMALY": 271.5072, "EPHEMERIS_TYPE": 0, "CLASSIFICATION_TYPE": "U", "NORAD_CAT_ID": 29780, "ELEMENT_SET_NO": 999, "REV_AT_EPOCH": 97271, "BSTAR": 0.001769532, "MEAN_MOTION_DOT": 3.834e-05, "MEAN_MOTION_DDOT": 0}, "tle": {"line1": "1 29780U 99025BW  25360.30406564  .00003834  00000+0  17695-2 0  9992", "line2": "2 29780  99.2780 281.9088 0042030  89.0919 271.5072 14.21133900972718"}}, "geometry": {"type": "Point", "coordinates": [-90.05277508525039, 52.91617199222906]}}, {"type": "Feature", "properties": {"norad_id": 29781, "name": "FENGYUN 1C DEB", "group": "fengyun-1c-debris", "lat": -73.95274769193773, "lon": 27.19188758100661, "alt_km": 928.2162155894111, "timestamp": "2025-12-26T19:22:39.178036+00:00", "meta": {"OBJECT_NAME": "FENGYUN 1C DEB", "OBJECT_ID": "1999-025BX", "EPOCH": "2025-12-26T06:09:39.835584", "MEAN_MOTION": 14.0525824, "ECCENTRICITY": 0.00724174, "INCLINATION": 98.8108, "RA_OF_ASC_NODE": 354.0267, "ARG_OF_PERICENTER": 135.2779, "MEAN_ANOMALY": 243.4505, "EPHEMERIS_TYPE": 0, "CLASSIFICATION_TYPE": "U", "NORAD_CAT_ID": 29781, "ELEMENT_SET_NO": 999, "REV_AT_EPOCH": 96833, "BSTAR": 0.00058361149, "MEAN_MOTION_DOT": 9.24e-06, "MEAN_MOTION_DDOT": 0}, "tle": {"line1": "1 29781U 99025BX  25360.25671106  .00000924  00000+0  58361-3 0  9996", "line2": "2 29781  98.8108 354.0267 0072417 135.2779 243.4505 14.05258240968338"}}, "geometry": {"type": "Point", "coordinates": [27.19188758100661, -73.95274769193773]}}]}